NORAD_CAT_ID,OBJECT_NAME,OBJECT_TYPE,EPOCH,MEAN_MOTION,ECCENTRICITY,INCLINATION,RA_OF_ASC_NODE,ARG_OF_PERICENTER,MEAN_ANOMALY,BSTAR,MEAN_MOTION_DOT,MEAN_MOTION_DDOT,TLE_LINE0,TLE_LINE1,TLE_LINE2,SEMIMAJOR_AXIS,PERIOD,APOGEE,PERIGEE,DECAYED
55435.0,STARLINK-5626,PAYLOAD,2023-05-15 13:06:41,14.98329169,0.000327,69.9988,179.2686,268.4906,91.5878,6.8101e-05,7.2e-06,0.0,0 STARLINK-5626,1 55435U 23014AW  23135.54631443  .00000720  00000-0  68101-4 0  9995,2 55435  69.9988 179.2686 0003270 268.4906  91.5878 14.98329169 16916,6950.195,96.107,574.333,569.788,0.0
55435.0,STARLINK-5626,PAYLOAD,2023-05-16 11:32:34,14.98350707,0.0003446,69.9987,176.9124,268.8446,91.2319,-0.00032077,-3.921e-05,0.0,0 STARLINK-5626,1 55435U 23014AW  23136.48094915 -.00003921  00000-0 -32077-3 0  9996,2 55435  69.9987 176.9124 0003446 268.8446  91.2319 14.98350707 16115,6950.129,96.106,574.389,569.599,0.0
55435.0,STARLINK-5626,PAYLOAD,2023-05-16 19:33:15,14.98301646,0.0003296,69.9988,176.0708,282.6217,77.4574,0.00051193,6.016e-05,0.0,0 STARLINK-5626,1 55435U 23014AW  23136.81476260  .00006016  00000-0  51193-3 0  9996,2 55435  69.9988 176.0708 0003296 282.6217  77.4574 14.98301646 17105,6950.281,96.109,574.436,569.855,0.0
55435.0,STARLINK-5626,PAYLOAD,2023-05-17 09:58:27,14.98327115,0.0003343,69.9984,174.5554,266.851,93.2266,7.5213e-05,8.04e-06,0.0,0 STARLINK-5626,1 55435U 23014AW  23137.41559295  .00000804  00000-0  75213-4 0  9992,2 55435  69.9984 174.5554 0003343 266.8510  93.2266 14.98327115 16254,6950.202,96.107,574.39,569.743,0.0
55435.0,STARLINK-5626,PAYLOAD,2023-05-17 19:35:15,14.98337796,0.0003431,69.9985,173.5453,270.2032,89.8734,-0.00012559,-1.592e-05,0.0,0 STARLINK-5626,1 55435U 23014AW  23137.81615037 -.00001592  00000-0 -12559-3 0  9993,2 55435  69.9985 173.5453 0003431 270.2032  89.8734 14.98337796 17256,6950.169,96.106,574.418,569.649,0.0
55435.0,STARLINK-5626,PAYLOAD,2023-05-18 11:36:36,14.98329633,0.0003411,69.9983,171.862,269.8039,90.273,-9.1315e-06,-2.02e-06,0.0,0 STARLINK-5626,1 55435U 23014AW  23138.48375226 -.00000202  00000-0 -91315-5 0  9996,2 55435  69.9983 171.8620 0003411 269.8039  90.2730 14.98329633 16410,6950.194,96.107,574.43,569.688,0.0
55435.0,STARLINK-5626,PAYLOAD,2023-05-18 19:37:16,14.98330021,0.0003415,69.9984,171.0204,269.7453,90.3315,-1.0203e-05,-2.15e-06,0.0,0 STARLINK-5626,1 55435U 23014AW  23138.81755187 -.00000215  00000-0 -10203-4 0  9991,2 55435  69.9984 171.0204 0003415 269.7453  90.3315 14.98330021 17407,6950.193,96.107,574.431,569.684,0.0
55435.0,STARLINK-5626,PAYLOAD,2023-05-19 11:38:37,14.98329768,0.000348,69.9983,169.3372,269.4166,90.6595,-1.2097e-05,-2.37e-06,0.0,0 STARLINK-5626,1 55435U 23014AW  23139.48515169 -.00000237  00000-0 -12097-4 0  9996,2 55435  69.9983 169.3372 0003480 269.4166  90.6595 14.98329768 16567,6950.194,96.107,574.477,569.64,0.0
55435.0,STARLINK-5626,PAYLOAD,2023-05-19 19:39:17,14.98330275,0.0003488,69.9983,168.4954,269.4301,90.6458,2.6892e-06,-6.1e-07,0.0,0 STARLINK-5626,1 55435U 23014AW  23139.81895079 -.00000061  00000-0  26892-5 0  9997,2 55435  69.9983 168.4954 0003488 269.4301  90.6458 14.98330275 17555,6950.192,96.107,574.481,569.633,0.0
55435.0,STARLINK-5626,PAYLOAD,2023-05-20 11:40:37,14.98332647,0.0003524,69.9981,166.8118,268.752,91.3235,3.9307e-05,3.76e-06,0.0,0 STARLINK-5626,1 55435U 23014AW  23140.48654751  .00000376  00000-0  39307-4 0  9994,2 55435  69.9981 166.8118 0003524 268.7520  91.3235 14.98332647 16716,6950.185,96.107,574.499,569.6,0.0
55435.0,STARLINK-5626,PAYLOAD,2023-05-20 19:41:17,14.98332724,0.0003517,69.9982,165.9702,268.8127,91.2629,3.6704e-05,3.45e-06,0.0,0 STARLINK-5626,1 55435U 23014AW  23140.82034688  .00000345  00000-0  36704-4 0  9997,2 55435  69.9982 165.9702 0003517 268.8127  91.2629 14.98332724 17704,6950.184,96.107,574.494,569.605,0.0
55435.0,STARLINK-5626,PAYLOAD,2023-05-21 11:42:38,14.98333435,0.0003513,69.9981,164.2871,269.2058,90.8699,4.1167e-05,3.98e-06,0.0,0 STARLINK-5626,1 55435U 23014AW  23141.48794502  .00000398  00000-0  41167-4 0  9995,2 55435  69.9981 164.2871 0003513 269.2058  90.8699 14.98333435 17809,6950.182,96.107,574.489,569.606,0.0
55435.0,STARLINK-5626,PAYLOAD,2023-05-22 11:44:39,14.98328768,0.0003386,69.9982,161.7622,269.6785,90.3986,-2.4595e-05,-3.87e-06,0.0,0 STARLINK-5626,1 55435U 23014AW  23142.48934915 -.00000387  00000-0 -24595-4 0  9996,2 55435  69.9982 161.7622 0003386 269.6785  90.3986 14.98328768 17958,6950.197,96.107,574.415,569.708,0.0
55435.0,STARLINK-5626,PAYLOAD,2023-05-22 18:09:12,14.98329386,0.0003386,69.9981,161.0888,269.5917,90.4854,-4.0079e-05,-5.71e-06,0.0,0 STARLINK-5626,1 55435U 23014AW  23142.75638912 -.00000571  00000-0 -40079-4 0  9994,2 55435  69.9981 161.0888 0003386 269.5917  90.4854 14.98329386 17053,6950.195,96.107,574.413,569.706,0.0
55435.0,STARLINK-5626,PAYLOAD,2023-05-23 18:11:12,14.98328639,0.0003411,69.998,158.5639,268.5823,91.4945,-7.6396e-06,-1.84e-06,0.0,0 STARLINK-5626,1 55435U 23014AW  23143.75778872 -.00000184  00000-0 -76396-5 0  9997,2 55435  69.9980 158.5639 0003411 268.5823  91.4945 14.98328639 17200,6950.197,96.107,574.433,569.691,0.0
55435.0,STARLINK-5626,PAYLOAD,2023-05-24 08:36:25,14.98329423,0.000347,69.9978,157.049,268.0446,92.0316,2.9341e-05,2.57e-06,0.0,0 STARLINK-5626,1 55435U 23014AW  23144.35862723  .00000257  00000-0  29341-4 0  9999,2 55435  69.9978 157.0490 0003470 268.0446  92.0316 14.98329423 18232,6950.195,96.107,574.471,569.648,0.0
55435.0,STARLINK-5626,PAYLOAD,2023-05-26 03:52:03,14.98330752,0.0003451,69.9978,152.5051,266.6813,93.3952,-1.2305e-06,-1.08e-06,0.0,0 STARLINK-5626,1 55435U 23014AW  23146.16114697 -.00000108  00000-0 -12305-5 0  9990,2 55435  69.9978 152.5051 0003451 266.6813  93.3952 14.98330752 17568,6950.191,96.107,574.454,569.657,0.0
55435.0,STARLINK-5626,PAYLOAD,2023-05-26 10:16:35,14.98329671,0.0003428,69.9978,151.8313,264.177,95.8998,-5.6158e-06,-1.6e-06,0.0,0 STARLINK-5626,1 55435U 23014AW  23146.42818748 -.00000160  00000-0 -56158-5 0  9999,2 55435  69.9978 151.8313 0003428 264.1770  95.8998 14.98329671 18544,6950.194,96.107,574.441,569.676,0.0
55435.0,STARLINK-5626,PAYLOAD,2023-05-27 10:18:36,14.98328308,0.0003404,69.9977,149.3063,265.3605,94.7165,-7.0351e-06,-1.77e-06,0.0,0 STARLINK-5626,1 55435U 23014AW  23147.42958837 -.00000177  00000-0 -70351-5 0  9993,2 55435  69.9977 149.3063 0003404 265.3605  94.7165 14.98328308 17753,6950.198,96.107,574.429,569.697,0.0
55435.0,STARLINK-5626,PAYLOAD,2023-05-28 05:32:12,14.98329242,0.0003536,69.9976,147.2861,268.4954,91.58,5.3079e-05,5.4e-06,0.0,0 STARLINK-5626,1 55435U 23014AW  23148.23070572  .00000540  00000-0  53079-4 0  9993,2 55435  69.9976 147.2861 0003536 268.4954  91.5800 14.98329242 18819,6950.195,96.107,574.518,569.603,0.0
55435.0,STARLINK-5626,PAYLOAD,2023-05-28 10:20:37,14.98332173,0.0003573,69.9976,146.781,268.9311,91.1439,1.7121e-05,1.11e-06,0.0,0 STARLINK-5626,1 55435U 23014AW  23148.43098472  .00000111  00000-0  17121-4 0  9996,2 55435  69.9976 146.7810 0003573 268.9311  91.1439 14.98332173 17900,6950.186,96.107,574.534,569.568,0.0
55435.0,STARLINK-5626,PAYLOAD,2023-05-28 16:45:09,14.98313621,0.000344,69.9976,146.1075,268.5038,91.5727,0.0003088,3.592e-05,0.0,0 STARLINK-5626,1 55435U 23014AW  23148.69803062  .00003592  00000-0  30880-3 0  9995,2 55435  69.9976 146.1075 0003440 268.5038  91.5727 14.98313621 17947,6950.244,96.108,574.499,569.718,0.0
55435.0,STARLINK-5626,PAYLOAD,2023-05-29 02:21:57,14.98330704,0.000347,69.9976,145.0979,266.3472,93.729,3.2401e-05,2.94e-06,0.0,0 STARLINK-5626,1 55435U 23014AW  23149.09858473  .00000294  00000-0  32401-4 0  9994,2 55435  69.9976 145.0979 0003470 266.3472  93.7290 14.98330704 18007,6950.191,96.107,574.467,569.644,0.0
55435.0,STARLINK-5626,PAYLOAD,2023-05-29 08:46:29,14.98330744,0.0003451,69.9977,144.4244,267.6138,92.4626,3.2298e-05,2.92e-06,0.0,0 STARLINK-5626,1 55435U 23014AW  23149.36562463  .00000292  00000-0  32298-4 0  9997,2 55435  69.9977 144.4244 0003451 267.6138  92.4626 14.98330744 18988,6950.191,96.107,574.454,569.657,0.0
55435.0,STARLINK-5626,PAYLOAD,2023-05-29 21:35:34,14.98329994,0.000343,69.9978,143.0778,268.024,92.0526,-8.9336e-06,-2e-06,0.0,0 STARLINK-5626,1 55435U 23014AW  23149.89970602 -.00000200  00000-0 -89336-5 0  9990,2 55435  69.9978 143.0778 0003430 268.0240  92.0526 14.98329994 19062,6950.193,96.107,574.442,569.674,0.0
55435.0,STARLINK-5626,PAYLOAD,2023-05-30 10:24:39,14.9832889,0.0003388,69.9978,141.7312,265.7182,94.359,-2.1787e-05,-3.53e-06,0.0,0 STARLINK-5626,1 55435U 23014AW  23150.43378713 -.00000353  00000-0 -21787-4 0  9991,2 55435  69.9978 141.7312 0003388 265.7182  94.3590 14.98328890 18207,6950.196,96.107,574.416,569.707,0.0
55435.0,STARLINK-5626,PAYLOAD,2023-05-31 08:50:31,14.98332832,0.000348,69.9978,139.3745,268.4465,91.6295,1.2966e-05,6.2e-07,0.0,0 STARLINK-5626,1 55435U 23014AW  23151.36842314  .00000062  00000-0  12966-4 0  9991,2 55435  69.9978 139.3745 0003480 268.4465  91.6295 14.98332832 19289,6950.184,96.107,574.468,569.63,0.0
55435.0,STARLINK-5626,PAYLOAD,2023-05-31 16:51:12,14.98330809,0.0003489,69.9978,138.5326,268.6457,91.4302,1.636e-05,1.02e-06,0.0,0 STARLINK-5626,1 55435U 23014AW  23151.70222385  .00000102  00000-0  16360-4 0  9996,2 55435  69.9978 138.5326 0003489 268.6457  91.4302 14.98330809 18397,6950.19,96.107,574.48,569.63,0.0
55435.0,STARLINK-5626,PAYLOAD,2023-06-01 08:52:32,14.98330515,0.0003462,69.9978,136.8493,268.3995,91.6767,4.8963e-05,4.91e-06,0.0,0 STARLINK-5626,1 55435U 23014AW  23152.36982291  .00000491  00000-0  48963-4 0  9993,2 55435  69.9978 136.8493 0003462 268.3995  91.6767 14.98330515 19435,6950.191,96.107,574.462,569.65,0.0
55435.0,STARLINK-5626,PAYLOAD,2023-06-02 02:30:01,14.98330911,0.0003443,69.9979,134.9976,268.3035,91.773,-8.7886e-06,-1.98e-06,0.0,0 STARLINK-5626,1 55435U 23014AW  23153.10418371 -.00000198  00000-0 -87886-5 0  9993,2 55435  69.9979 134.9976 0003443 268.3035  91.7730 14.98330911 18604,6950.19,96.107,574.448,569.662,0.0
